1 01328U 65032A   13242.17028731 -.00000014  00000-0  11110-3 0  9994
2 01328 041.1822 207.3910 0238700 122.8940 239.5021 13.38331530362410
1 01328U 65032A   13243.36448152 -.00000005  00000-0  12565-3 0  9994
2 01328 041.1823 202.2866 0238782 129.1024 233.1223 13.38331832362574
1 01328U 65032A   13244.85721564  .00000028  00000-0  17652-3 0  9996
2 01328 041.1826 195.9061 0238847 136.8879 225.0848 13.38331802362779
1 01328U 65032A   13246.12603389  .00000052  00000-0  21426-3 0  9993
2 01328 041.1826 190.4829 0238941 143.4873 218.2434 13.38331933362943
1 01328U 65032A   13247.17093945  .00000059  00000-0  22481-3 0  9999
2 01328 041.1827 186.0165 0239030 148.9223 212.5916 13.38332216363080
1 01328U 65032A   13248.81292821  .00000033  00000-0  18182-3 0  9990
2 01328 041.1828 178.9980 0239176 157.4493 203.6976 13.38332750363306
1 01328U 65032A   13250.15636911  .00000029  00000-0  17504-3 0  9994
2 01328 041.1829 173.2558 0239278 164.4299 196.3973 13.38333183363486
1 01328U 65032A   13251.27590118  .00000004  00000-0  13490-3 0  9999
2 01328 041.1830 168.4705 0239367 170.2406 190.3111 13.38333567363633
1 01328U 65032A   13252.84324382 -.00000026  00000-0  87408-4 0  9997
2 01328 041.1831 161.7712 0239497 178.3709 181.7870 13.38333842363842
1 01328U 65032A   13254.11204415 -.00000018  00000-0  99298-4 0  9994
2 01328 041.1832 156.3479 0239598 184.9494 174.8878 13.38333813364018
1 01328U 65032A   13255.75402214 -.00000015  00000-0  10304-3 0  9999
2 01328 041.1832 149.3294 0239726 193.4680 165.9592 13.38333583364232
1 01328U 65032A   13256.79891900 -.00000015  00000-0  10265-3 0  9994
2 01328 041.1832 144.8632 0239794 198.8798 160.2939 13.38333565364370
1 01328U 65032A   13258.06772482 -.00000034  00000-0  71402-4 0  9991
2 01328 041.1832 139.4401 0239850 205.4514 153.4261 13.38333643364546
1 01328U 65032A   13259.11262623 -.00000061  00000-0  28375-4 0  9990
2 01328 041.1832 134.9738 0239904 210.8674 147.7781 13.38333681364686
1 01328U 65032A   13260.15753130 -.00000094  00000-0 -24452-4 0  9993
2 01328 041.1838 130.5093 0240008 216.2110 142.2182 13.38333846364824
1 01328U 65032A   13261.42634761 -.00000103  00000-0 -38998-4 0  9993
2 01328 041.1839 125.0859 0240038 222.7800 135.4045 13.38333719364994
1 01328U 65032A   13263.06835330 -.00000089  00000-0 -17040-4 0  9998
2 01328 041.1840 118.0673 0240053 231.2686 126.6385 13.38333759365215
1 01328U 65032A   13264.48645695 -.00000078  00000-0  79903-6 0  9993
2 01328 041.1842 112.0056 0240050 238.6093 119.0975 13.38333645365402
1 01328U 65032A   13265.53138100 -.00000082  00000-0 -52564-5 0  9997
2 01328 041.1843 107.5392 0240036 244.0134 113.5713 13.38333569365545
1 01328U 65032A   13266.80022386 -.00000078  00000-0  12590-5 0  9995
2 01328 041.1845 102.1158 0240005 250.5795 106.8877 13.38333641365704
1 01328U 65032A   13267.99443463 -.00000050  00000-0  44556-4 0  9995
2 01328 041.1840 097.0097 0240084 256.8104 100.5762 13.38333771365868
1 01328U 65032A   13269.03937496 -.00000037  00000-0  65691-4 0  9994
2 01328 041.1841 092.5433 0240059 262.2239 095.1199 13.38333879366004
1 01328U 65032A   13270.15895958 -.00000038  00000-0  65082-4 0  9990
2 01328 041.1842 087.7578 0240019 268.0268 089.2984 13.38333957366152
1 01328U 65032A   13271.80102765 -.00000045  00000-0  53403-4 0  9992
2 01328 041.1845 080.7389 0239933 276.5359 080.8134 13.38334336366376
1 01328U 65032A   13273.51774774 -.00000042  00000-0  60115-4 0  9992
2 01328 041.1848 073.4011 0239839 285.4249 072.0131 13.38334644366600
1 01328U 65032A   13274.78663582 -.00000016  00000-0  10129-3 0  9996
2 01328 041.1850 067.9776 0239769 291.9975 065.5463 13.38334759366779
1 01328U 65032A   13275.83160758  .00000011  00000-0  14461-3 0  9997
2 01328 041.1852 063.5112 0239696 297.4144 060.2414 13.38335141366926
1 01328U 65032A   13277.10050708  .00000013  00000-0  14771-3 0  9998
2 01328 041.1854 058.0878 0239615 303.9783 053.8412 13.38335279367096
1 01328U 65032A   13278.44405427  .00000009  00000-0  14270-3 0  9997
2 01328 041.1853 052.3451 0239505 310.9449 047.0796 13.38335413367274
1 01328U 65032A   13279.78760718  .00000060  00000-0  22374-3 0  9993
2 01328 041.1852 046.6022 0239362 317.9198 040.3393 13.38335746367450
1 01328U 65032A   13281.13116534  .00000067  00000-0  23704-3 0  9991
2 01328 041.1852 040.8597 0239263 324.8972 033.6218 13.38336254367636
1 01328U 65032A   13282.47472789  .00000037  00000-0  19018-3 0  9996
2 01328 041.1852 035.1171 0239159 331.8787 026.9224 13.38336932367812
1 01328U 65032A   13283.74365061  .00000027  00000-0  17485-3 0  9996
2 01328 041.1851 029.6936 0239075 338.4700 020.6136 13.38337059367985
1 01328U 65032A   13286.13221702  .00000025  00000-0  17244-3 0  9996
2 01328 041.1850 019.4844 0238898 350.8903 008.7561 13.38337279368304
1 01328U 65032A   13287.47578757 -.00000005  00000-0  12531-3 0  9992
2 01328 041.1848 013.7417 0238808 357.8782 002.0946 13.38337377368489
1 01328U 65032A   13288.67007255 -.00000019  00000-0  10438-3 0  9994
2 01328 041.1847 008.6372 0238752 004.0916 356.1725 13.38337344368649
1 01328U 65032A   13289.71507157 -.00000012  00000-0  11471-3 0  9997
2 01328 041.1846 004.1706 0238691 009.5320 350.9854 13.38337572368784
1 01328U 65032A   13291.13328313 -.00000033  00000-0  83056-4 0  9993
2 01328 041.1844 358.1088 0238612 016.9164 343.9382 13.38337785368973
1 01328U 65032A   13292.17827945 -.00000060  00000-0  39636-4 0  9998
2 01328 041.1843 353.6422 0238570 022.3591 338.7364 13.38337818369118
1 01328U 65032A   13293.44720075 -.00000070  00000-0  24313-4 0  9992
2 01328 041.1841 348.2183 0238516 028.9697 332.4063 13.38337669369288
1 01328U 65032A   13294.49219230 -.00000065  00000-0  33603-4 0  9990
2 01328 041.1839 343.7516 0238479 034.4168 327.1780 13.38337626369424
1 01328U 65032A   13295.61182326 -.00000075  00000-0  16801-4 0  9992
2 01328 041.1838 338.9658 0238447 040.2479 321.5666 13.38337712369574
1 01328U 65032A   13297.10465908 -.00000086  00000-0 -26204-6 0  9991
2 01328 041.1837 332.5859 0238413 048.0627 314.0187 13.38337719369774
1 01328U 65032A   13298.44820464 -.00000079  00000-0  11359-4 0  9995
2 01328 041.1837 326.8432 0238431 055.0497 307.2404 13.38337757369958
1 01328U 65032A   13299.49317949 -.00000058  00000-0  44469-4 0  9995
2 01328 041.1835 322.3751 0238412 060.4571 301.9725 13.38337731370099
1 01328U 65032A   13300.83671290 -.00000062  00000-0  37678-4 0  9997
2 01328 041.1835 316.6322 0238410 067.4595 295.1205 13.38338029370278
1 01328U 65032A   13302.10559845 -.00000062  00000-0  37943-4 0  9995
2 01328 041.1834 311.2082 0238432 074.0715 288.6172 13.38338175370444
1 01328U 65032A   13303.15055733 -.00000042  00000-0  70536-4 0  9991
2 01328 041.1834 306.7415 0238439 079.5220 283.2305 13.38338261370581
1 01328U 65032A   13304.49406856 -.00000000  00000-0  13570-3 0  9993
2 01328 041.1834 300.9987 0238462 086.5227 276.2767 13.38338597370768
1 01328U 65032A   13305.76293213  .00000012  00000-0  15581-3 0  9991
2 01328 041.1834 295.5749 0238483 093.1420 269.6646 13.38338766370934
1 01328U 65032A   13306.80787291  .00000021  00000-0  16943-3 0  9994
2 01328 041.1834 291.1084 0238518 098.5815 264.2038 13.38338843371072
1 01328U 65032A   13307.85280847  .00000033  00000-0  18817-3 0  9990
2 01328 041.1834 286.6420 0238556 104.0248 258.7147 13.38339013371215
1 01328U 65032A   13308.89773899  .00000049  00000-0  21263-3 0  9995
2 01328 041.1833 282.1755 0238606 109.4590 253.2106 13.38339393371352
1 01328U 65032A   13310.16657650  .00000045  00000-0  20533-3 0  9999
2 01328 041.1833 276.7520 0238679 116.0549 246.4981 13.38340074371521
1 01328U 65032A   13311.21149571  .00000027  00000-0  17722-3 0  9990
2 01328 041.1833 272.2856 0238733 121.5001 240.9312 13.38340477371668
1 01328U 65032A   13311.36077786  .00000125  00000-0  19806-3 0  9998
2 01328 041.1855 271.6396 0238460 122.2133 240.2448 13.38340223371689
1 01328U 65032A   13312.40568309  .00000014  00000-0  15636-3 0  9994
2 01328 041.1833 267.1811 0238801 127.7241 234.5414 13.38340837371822
1 01328U 65032A   13313.89840910  .00000022  00000-0  16731-3 0  9995
2 01328 041.1833 260.8007 0238907 135.4933 226.5280 13.38341051372024
1 01328U 65032A   13315.16721995  .00000024  00000-0  17040-3 0  9994
2 01328 041.1833 255.3775 0239001 142.0860 219.6987 13.38341480372195
1 01328U 65032A   13316.21211893  .00000037  00000-0  18925-3 0  9999
2 01328 041.1832 250.9113 0239076 147.5223 214.0492 13.38341625372333
1 01328U 65032A   13317.33165012  .00000025  00000-0  17084-3 0  9996
2 01328 041.1831 246.1261 0239164 153.3440 207.9836 13.38341656372480
1 01328U 65032A   13318.45117847  .00000047  00000-0  20486-3 0  9997
2 01328 041.1831 241.3409 0239256 159.1591 201.9111 13.38341780372639
1 01328U 65032A   13320.16778475  .00000016  00000-0  15490-3 0  9993
2 01328 041.1829 234.0037 0239390 168.0648 192.5910 13.38342390372868
1 01328U 65032A   13321.21267343 -.00000014  00000-0  10553-3 0  9991
2 01328 041.1828 229.5375 0239475 173.4913 186.9039 13.38342561373006
1 01328U 65032A   13322.25756131 -.00000039  00000-0  65480-4 0  9991
2 01328 041.1827 225.0714 0239544 178.9204 181.2107 13.38342670373143
1 01328U 65032A   13323.52635340 -.00000044  00000-0  57345-4 0  9997
2 01328 041.1827 219.6482 0239640 185.5039 174.3064 13.38342668373312
1 01328U 65032A   13324.79514647 -.00000075  00000-0  72211-5 0  9997
2 01328 041.1826 214.2249 0239731 192.0751 167.4184 13.38342776373482
1 01328U 65032A   13326.13857589 -.00000087  00000-0 -12193-4 0  9998
2 01328 041.1826 208.4826 0239817 199.0355 160.1310 13.38342575373668
1 01328U 65032A   13327.48200881 -.00000072  00000-0  10850-4 0  9995
2 01328 041.1828 202.7419 0240007 205.9350 152.9206 13.38342332373844
1 01328U 65032A   13328.82544543 -.00000078  00000-0  11948-5 0  9996
2 01328 041.1828 196.9993 0240069 212.8931 145.6680 13.38342482374027
1 01328U 65032A   13329.87034393 -.00000092  00000-0 -21794-4 0  9995
2 01328 041.1828 192.5329 0240115 218.2951 140.0531 13.38342540374160
